NORAD_CAT_ID,OBJECT_NAME,OBJECT_TYPE,EPOCH,MEAN_MOTION,ECCENTRICITY,INCLINATION,RA_OF_ASC_NODE,ARG_OF_PERICENTER,MEAN_ANOMALY,BSTAR,MEAN_MOTION_DOT,MEAN_MOTION_DDOT,TLE_LINE0,TLE_LINE1,TLE_LINE2,SEMIMAJOR_AXIS,PERIOD,APOGEE,PERIGEE,DECAYED
52644.0,STARLINK-3985,PAYLOAD,2022-08-11 04:00:00,15.31931351,0.0001607,53.2174,5.1713,36.9402,354.7883,-0.037219,-0.01067211,0.0,0 STARLINK-3985,1 52644U 22052AY  22223.16667824 -.01067211  00000-0 -37219-1 0  9996,2 52644  53.2174   5.1713 0001607  36.9402 354.7883 15.31931351 14252,6848.187,93.999,471.153,468.952,0.0
52644.0,STARLINK-3985,PAYLOAD,2022-08-11 14:00:01,15.30980265,0.0001994,53.2175,3.2343,35.9249,134.2587,-0.038211,-0.01063805,0.0,0 STARLINK-3985,1 52644U 22052AY  22223.58334491 -.01063805  00000-0 -38211-1 0  9991,2 52644  53.2175   3.2343 0001994  35.9249 134.2587 15.30980265  1309,6851.023,94.057,474.254,471.522,0.0
52644.0,STARLINK-3985,PAYLOAD,2022-08-11 22:00:00,15.30223098,0.0001582,53.2171,1.6866,51.9047,156.015,-0.0392589999999999,-0.0106705,0.0,0 STARLINK-3985,1 52644U 22052AY  22223.91667824 -.01067050  00000-0 -39259-1 0  9996,2 52644  53.2171   1.6866 0001582  51.9047 156.0150 15.30223098 14366,6853.283,94.104,476.232,474.064,0.0
52644.0,STARLINK-3985,PAYLOAD,2022-08-12 14:00:01,15.287019199999998,0.0001773,53.2174,358.5951,39.0639,241.5935,-0.040996,-0.01063285,0.0,0 STARLINK-3985,1 52644U 22052AY  22224.58334491 -.01063285  00000-0 -40996-1 0  9997,2 52644  53.2174 358.5951 0001773  39.0639 241.5935 15.28701920  1307,6857.829000000002,94.198,480.91,478.478,0.0
52644.0,STARLINK-3985,PAYLOAD,2022-08-12 20:00:01,15.28128995,0.0001501999999999,53.2172,357.4385,58.9819,158.0752,-0.041494,-0.01057791,0.0,0 STARLINK-3985,1 52644U 22052AY  22224.83335648 -.01057791  00000-0 -41494-1 0  9999,2 52644  53.2172 357.4385 0001502  58.9819 158.0752 15.28128995 14504,6859.543000000002,94.233,482.43800000000016,480.377,0.0
52644.0,STARLINK-3985,PAYLOAD,2022-08-12 22:00:01,15.27945724,0.0001319,53.2171,357.0523,57.9257,257.7935,-0.042192,-0.01068541,0.0,0 STARLINK-3985,1 52644U 22052AY  22224.91668981 -.01068541  00000-0 -42192-1 0  9998,2 52644  53.2171 357.0523 0001319  57.9257 257.7935 15.27945724  1304,6860.090999999999,94.244,482.861,481.051,0.0
52644.0,STARLINK-3985,PAYLOAD,2022-08-13 14:00:01,15.26425036,0.0001729,53.2174,353.9717,36.1028,346.8143,-0.044074,-0.01065808,0.0,0 STARLINK-3985,1 52644U 22052AY  22225.58334491 -.01065808  00000-0 -44074-1 0  9992,2 52644  53.2174 353.9717 0001729  36.1028 346.8143 15.26425036  1306,6864.647,94.338,487.699,485.325,0.0
52644.0,STARLINK-3985,PAYLOAD,2022-08-13 22:00:00,15.25665489,0.0001791,53.2171,352.4343,34.1326,21.0459,-0.045081,-0.0106535,0.0,0 STARLINK-3985,1 52644U 22052AY  22225.91667824 -.01065350  00000-0 -45081-1 0  9999,2 52644  53.2171 352.4343 0001791  34.1326  21.0459 15.25665489  1309,6866.925,94.385,490.02,487.56,0.0
52644.0,STARLINK-3985,PAYLOAD,2022-08-14 04:00:00,15.25093484,0.0001591,53.2174,351.281,38.4055,310.372,-0.045719,-0.01062132,0.0,0 STARLINK-3985,1 52644U 22052AY  22226.16667824 -.01062132  00000-0 -45719-1 0  9990,2 52644  53.2174 351.2810 0001591  38.4055 310.3720 15.25093484 14716,6868.642,94.42,491.6,489.414,0.0
52644.0,STARLINK-3985,PAYLOAD,2022-08-14 14:00:01,15.24145506,0.0001837,53.2173,349.3646,39.9275,77.0363,-0.047146,-0.01064313,0.0,0 STARLINK-3985,1 52644U 22052AY  22226.58334491 -.01064313  00000-0 -47146-1 0  9996,2 52644  53.2173 349.3646 0001837  39.9275  77.0363 15.24145506  1306,6871.49,94.479,494.617,492.092,0.0
52644.0,STARLINK-3985,PAYLOAD,2022-08-14 20:00:01,15.23574991,0.0001506,53.2172,348.2158,45.8434,3.3483,-0.047839,-0.01061794,0.0,0 STARLINK-3985,1 52644U 22052AY  22226.83334491 -.01061794  00000-0 -47839-1 0  9993,2 52644  53.2172 348.2158 0001506  45.8434   3.3483 15.23574991 14815,6873.205,94.515,496.105,494.035,0.0
52644.0,STARLINK-3985,PAYLOAD,2022-08-14 22:00:00,15.23385921,0.000162,53.2172,347.8322,49.9661,96.5213,-0.048194,-0.0106351,0.0,0 STARLINK-3985,1 52644U 22052AY  22226.91667824 -.01063510  00000-0 -48194-1 0  9994,2 52644  53.2172 347.8322 0001620  49.9661  96.5213 15.23385921  1305,6873.773,94.526,496.752,494.525,0.0
52644.0,STARLINK-3985,PAYLOAD,2022-08-15 12:00:00,15.22056471,0.0001955,53.2173,345.155,35.5932,70.3644,-0.050144,-0.01063645,0.0,0 STARLINK-3985,1 52644U 22052AY  22227.50001157 -.01063645  00000-0 -50144-1 0  9998,2 52644  53.2173 345.1550 0001955  35.5932  70.3644 15.22056471 14916,6877.776,94.609,500.985,498.296,0.0
52644.0,STARLINK-3985,PAYLOAD,2022-08-15 14:00:01,15.21865393,0.000197,53.2173,344.7733,39.2388,163.558,-0.050316,-0.01061464,0.0,0 STARLINK-3985,1 52644U 22052AY  22227.58334491 -.01061464  00000-0 -50316-1 0  9994,2 52644  53.2173 344.7733 0001970  39.2388 163.5580 15.21865393  1300,6878.351,94.621,501.571,498.861,0.0
52644.0,STARLINK-3985,PAYLOAD,2022-08-15 22:00:00,15.21108365,0.0001587,53.2172,343.2463,53.3316,176.2498,-0.051659,-0.01065246,0.0,0 STARLINK-3985,1 52644U 22052AY  22227.91667824 -.01065246  00000-0 -51659-1 0  9993,2 52644  53.2172 343.2463 0001587  53.3316 176.2498 15.21108365  1303,6880.6330000000025,94.668,503.59,501.406,0.0
52644.0,STARLINK-3985,PAYLOAD,2022-08-16 12:00:00,15.19776142,0.0001823,53.2174,340.5785,44.1469,140.1141,-0.053446,-0.01060275,0.0,0 STARLINK-3985,1 52644U 22052AY  22228.50001157 -.01060275  00000-0 -53446-1 0  9993,2 52644  53.2174 340.5785 0001823  44.1469 140.1141 15.19776142 15066,6884.654,94.751,507.774,505.264,0.0
52644.0,STARLINK-3985,PAYLOAD,2022-08-16 14:00:01,15.19587313,0.0001703,53.2174,340.1982,44.8915,235.5231,-0.053824,-0.01061733,0.0,0 STARLINK-3985,1 52644U 22052AY  22228.58334491 -.01061733  00000-0 -53824-1 0  9991,2 52644  53.2174 340.1982 0001703  44.8915 235.5231 15.19587313  1302,6885.224,94.763,508.261,505.916,0.0
52644.0,STARLINK-3985,PAYLOAD,2022-08-16 22:00:00,15.18830514,0.000152,53.2172,338.6762,48.5875,255.8741,-0.0552929999999999,-0.01079964,0.0,0 STARLINK-3985,1 52644U 22052AY  22228.91667824 -.01079964  00000-0 -55293-1 0  9994,2 52644  53.2172 338.6762 0001520  48.5875 255.8741 15.18830514  1305,6887.511,94.81,510.423,508.329,0.0
52644.0,STARLINK-3985,PAYLOAD,2022-08-17 04:00:00,15.18257805,0.0001662,53.2173,337.535,48.1021,183.7979,-0.055914,-0.01074525,0.0,0 STARLINK-3985,1 52644U 22052AY  22229.16667824 -.01074525  00000-0 -55914-1 0  9990,2 52644  53.2173 337.5350 0001662  48.1021 183.7979 15.18257805 15160,6889.243,94.846,512.253,509.963,0.0
52644.0,STARLINK-3985,PAYLOAD,2022-08-17 16:00:00,15.17124484,0.0001841,53.217,335.2615,40.794,44.4337,-0.05823,-0.01082389,0.0,0 STARLINK-3985,1 52644U 22052AY  22229.66667824 -.01082389  00000-0 -58230-1 0  9996,2 52644  53.2170 335.2615 0001841  40.7940  44.4337 15.17124484  1300,6892.6730000000025,94.916,515.807,513.269,0.0
52644.0,STARLINK-3985,PAYLOAD,2022-08-18 14:00:01,15.1503875,0.0001673,53.217,331.0971,42.0775,8.9259,-0.0620169999999999,-0.01085636,0.0,0 STARLINK-3985,1 52644U 22052AY  22230.58334491 -.01085636  00000-0 -62017-1 0  9996,2 52644  53.2170 331.0971 0001673  42.0775   8.9259 15.15038750  1309,6898.998000000001,95.047,522.0169999999998,519.7090000000002,0.0
52644.0,STARLINK-3985,PAYLOAD,2022-08-18 20:00:01,15.14463115,0.0001511,53.2171,329.962,46.7387,288.284,-0.062607,-0.01078687,0.0,0 STARLINK-3985,1 52644U 22052AY  22230.83334491 -.01078687  00000-0 -62607-1 0  9997,2 52644  53.2171 329.9620 0001511  46.7387 288.2840 15.14463115 15421,6900.746,95.083,523.654,521.568,0.0
52644.0,STARLINK-3985,PAYLOAD,2022-08-18 22:00:00,15.14271575,0.0001613,53.2173,329.584,44.8605,24.7207,-0.062806,-0.01076444,0.0,0 STARLINK-3985,1 52644U 22052AY  22230.91667824 -.01076444  00000-0 -62806-1 0  9995,2 52644  53.2173 329.5840 0001613  44.8605  24.7207 15.14271575  1307,6901.328,95.095,524.306,522.08,0.0
52644.0,STARLINK-3985,PAYLOAD,2022-08-19 14:00:01,15.12753499,0.0002044999999999,53.2175,326.5682,35.322,68.6631,-0.065639,-0.01077766,0.0,0 STARLINK-3985,1 52644U 22052AY  22231.58334491 -.01077766  00000-0 -65639-1 0  9995,2 52644  53.2175 326.5682 0002045  35.3220  68.6631 15.12753499  1304,6905.944,95.191,529.221,526.3969999999998,0.0
52644.0,STARLINK-3985,PAYLOAD,2022-08-19 20:00:01,15.12183542,0.0001683,53.2171,325.4385,40.3073,345.6389,-0.066652,-0.01077015,0.0,0 STARLINK-3985,1 52644U 22052AY  22231.83334491 -.01077015  00000-0 -66652-1 0  9996,2 52644  53.2171 325.4385 0001683  40.3073 345.6389 15.12183542 15575,6907.679,95.227,530.707,528.382,0.0
52644.0,STARLINK-3985,PAYLOAD,2022-08-19 22:00:00,15.11992361,0.0001788,53.2173,325.0617,42.809,77.0109,-0.066873,-0.01074991,0.0,0 STARLINK-3985,1 52644U 22052AY  22231.91667824 -.01074991  00000-0 -66873-1 0  9999,2 52644  53.2173 325.0617 0001788  42.8090  77.0109 15.11992361  1301,6908.262,95.239,531.362,528.891,0.0
52644.0,STARLINK-3985,PAYLOAD,2022-08-20 14:00:01,15.10474295,0.0002018,53.2175,322.0568,41.7466,107.0011,-0.069866,-0.01076467,0.0,0 STARLINK-3985,1 52644U 22052AY  22232.58334491 -.01076467  00000-0 -69866-1 0  9999,2 52644  53.2175 322.0568 0002018  41.7466 107.0011 15.10474295  1303,6912.89,95.334,536.15,533.359,0.0
52644.0,STARLINK-3985,PAYLOAD,2022-08-20 20:00:01,15.09853458,0.0001867,53.2172,320.931,45.7738,22.9552,-0.062711,-0.0094708,0.0,0 STARLINK-3985,1 52644U 22052AY  22232.83335648 -.00947080  00000-0 -62711-1 0  9991,2 52644  53.2172 320.9310 0001867  45.7738  22.9552 15.09853458 15725,6914.784000000002,95.373,537.94,535.3580000000002,0.0
52644.0,STARLINK-3985,PAYLOAD,2022-08-20 22:00:00,15.09606745,0.0001916,53.2174,320.5556,47.8013,114.0623,-0.050921,-0.00766772,0.0,0 STARLINK-3985,1 52644U 22052AY  22232.91667824 -.00766772  00000-0 -50921-1 0  9991,2 52644  53.2174 320.5556 0001916  47.8013 114.0623 15.09606745  1305,6915.538000000001,95.389,538.7280000000002,536.078,0.0
